IRIDIUM 7               
1 24793U 97020B   24352.77252643  .00000826  00000+0  27978-3 0  9996
2 24793  86.3962 252.8874 0002172  74.8859 285.2577 14.35665630445862
IRIDIUM 5               
1 24795U 97020D   24352.75098363  .00007161  00000+0  62430-3 0  9994
2 24795  86.3916 167.1812 0116619  68.7502 292.6133 14.91516926458399
IRIDIUM 4               
1 24796U 97020E   24353.00983453  .00000878  00000+0  29228-3 0  9993
2 24796  86.3960 249.7826 0002273  81.0859 279.0596 14.36580252446485
IRIDIUM 914             
1 24836U 97030A   24352.82085022  .00001078  00000+0  33264-3 0  9991
2 24836  86.3936 259.0134 0003893  89.4824 270.6821 14.40538775581017
IRIDIUM 16              
1 24841U 97030F   24352.85788959  .00001035  00000+0  33342-3 0  9999
2 24841  86.4025 281.4631 0001454  15.2486 344.8756 14.38401238440932
IRIDIUM 911             
1 24842U 97030G   24352.85484575  .00001480  00000+0  39963-3 0  9996
2 24842  86.4451 280.4198 0014022 352.1368   7.9613 14.47207951448854
IRIDIUM 17              
1 24870U 97034B   24352.87231280  .00001122  00000+0  36858-3 0  9999
2 24870  86.3949 311.0252 0000880 119.0226 241.1060 14.37503306437531
IRIDIUM 920             
1 24871U 97034C   24352.82546319  .00001191  00000+0  36309-3 0  9994
2 24871  86.3964 290.6793 0010464 331.2283  28.8338 14.41210939440456
